STARLINK-1716
1 16672C 20073C   21326.12795884  .00004950  00000-0  33157-3 0  3269
2 16672  53.0532  83.1619 0001177  88.1103 331.0042 15.06402579    13
